[{"OBJECT_NAME":"STARLINK-4577","OBJECT_ID":"2022-101AP","EPOCH":"2026-03-09T08:30:29.776320","MEAN_MOTION":15.08844388,"ECCENTRICITY":0.00014015,"INCLINATION":53.2182,"RA_OF_ASC_NODE":55.6902,"ARG_OF_PERICENTER":84.0483,"MEAN_ANOMALY":276.0669,"EPHEMERIS_TYPE":0,"CLASSIFICATION_TYPE":"U","NORAD_CAT_ID":53564,"ELEMENT_SET_NO":999,"REV_AT_EPOCH":19639,"BSTAR":0.00010470597,"MEAN_MOTION_DOT":1.379e-5,"MEAN_MOTION_DDOT":0},{"OBJECT_NAME":"SL-24 PLAT","OBJECT_ID":"2014-033AR","EPOCH":"2026-03-09T22:47:27.152448","MEAN_MOTION":15.0919716,"ECCENTRICITY":0.00052059,"INCLINATION":98.0981,"RA_OF_ASC_NODE":61.9435,"ARG_OF_PERICENTER":212.2329,"MEAN_ANOMALY":147.8581,"EPHEMERIS_TYPE":0,"CLASSIFICATION_TYPE":"U","NORAD_CAT_ID":40049,"ELEMENT_SET_NO":999,"REV_AT_EPOCH":63724,"BSTAR":0.00046923352,"MEAN_MOTION_DOT":7.393e-5,"MEAN_MOTION_DDOT":0}]
